{"type": "FeatureCollection", "features": [ {"type": "Feature", "properties": {"norad_id": 66849, "name": "STARLINK-36102", "group": "last-30-days", "lat": 42.94730129312038, "lon": 144.703032396444, "alt_km": 386.9902319101375, "timestamp": "2025-12-24T07:45:04.933120+00:00", "meta": {"OBJECT_NAME": "STARLINK-36102", "OBJECT_ID": "2025-281B", "EPOCH": "2025-12-23T22:00:01.999584", "MEAN_MOTION": 15.60048644, "ECCENTRICITY": 0.00015057, "INCLINATION": 43.0003, "RA_OF_ASC_NODE": 54.382, "ARG_OF_PERICENTER": 267.6557, "MEAN_ANOMALY": 61.1354, "EPHEMERIS_TYPE": 0, "CLASSIFICATION_TYPE": "U", "NORAD_CAT_ID": 66849, "ELEMENT_SET_NO": 999, "REV_AT_EPOCH": 318, "BSTAR": -0.027205515, "MEAN_MOTION_DOT": -0.01989114, "MEAN_MOTION_DDOT": 0}, "tle": {"line1": "1 66849U 25281B   25357.91668981 -.01989114  00000+0 -27206-1 0  9993", "line2": "2 66849  43.0003  54.3820 0001505 267.6557  61.1354 15.60048644  3186"}}, "geometry": {"type": "Point", "coordinates": [144.703032396444, 42.94730129312038]}}, {"type": "Feature", "properties": {"norad_id": 66850, "name": "STARLINK-36105", "group": "last-30-days", "lat": 42.85511980972141, "lon": 147.31630781872997, "alt_km": 387.03400593948027, "timestamp": "2025-12-24T07:45:04.933130+00:00", "meta": {"OBJECT_NAME": "STARLINK-36105", "OBJECT_ID": "2025-281C", "EPOCH": "2025-12-23T22:00:01.999584", "MEAN_MOTION": 15.60045516, "ECCENTRICITY": 0.00015416, "INCLINATION": 43.0003, "RA_OF_ASC_NODE": 54.377, "ARG_OF_PERICENTER": 271.0851, "MEAN_ANOMALY": 59.6263, "EPHEMERIS_TYPE": 0, "CLASSIFICATION_TYPE": "U", "NORAD_CAT_ID": 66850, "ELEMENT_SET_NO": 999, "REV_AT_EPOCH": 318, "BSTAR": -0.027188692, "MEAN_MOTION_DOT": -0.01987851, "MEAN_MOTION_DDOT": 0}, "tle": {"line1": "1 66850U 25281C   25357.91668981 -.01987851  00000+0 -27189-1 0  9991", "line2": "2 66850  43.0003  54.3770 0001541 271.0851  59.6263 15.60045516  3184"}}, "geometry": {"type": "Point", "coordinates": [147.31630781872997, 42.85511980972141]}}, {"type": "Feature", "properties": {"norad_id": 66851, "name": "STARLINK-36094", "group": "last-30-days", "lat": 42.70391692690242, "lon": 149.91652280727263, "alt_km": 386.9092615098207, "timestamp": "2025-12-24T07:45:04.933142+00:00", "meta": {"OBJECT_NAME": "STARLINK-36094", "OBJECT_ID": "2025-281D", "EPOCH": "2025-12-23T22:00:01.999584", "MEAN_MOTION": 15.60049126, "ECCENTRICITY": 0.00013369, "INCLINATION": 43.0005, "RA_OF_ASC_NODE": 54.3724, "ARG_OF_PERICENTER": 269.5092, "MEAN_ANOMALY": 63.1148, "EPHEMERIS_TYPE": 0, "CLASSIFICATION_TYPE": "U", "NORAD_CAT_ID": 66851, "ELEMENT_SET_NO": 999, "REV_AT_EPOCH": 318, "BSTAR": -0.027217889, "MEAN_MOTION_DOT": -0.01989816, "MEAN_MOTION_DDOT": 0}, "tle": {"line1": "1 66851U 25281D   25357.91668981 -.01989816  00000+0 -27218-1 0  9998", "line2": "2 66851  43.0005  54.3724 0001336 269.5092  63.1148 15.60049126  3180"}}, "geometry": {"type": "Point", "coordinates": [149.91652280727263, 42.70391692690242]}}, {"type": "Feature", "properties": {"norad_id": 66852, "name": "STARLINK-35992", "group": "last-30-days", "lat": 42.49346123614688, "lon": 152.50548441624863, "alt_km": 387.0186886398242, "timestamp": "2025-12-24T07:45:04.933154+00:00", "meta": {"OBJECT_NAME": "STARLINK-35992", "OBJECT_ID": "2025-281E", "EPOCH": "2025-12-23T22:00:01.999584", "MEAN_MOTION": 15.60043175, "ECCENTRICITY": 0.00014418, "INCLINATION": 43.0005, "RA_OF_ASC_NODE": 54.3678, "ARG_OF_PERICENTER": 271.878, "MEAN_ANOMALY": 62.6692, "EPHEMERIS_TYPE": 0, "CLASSIFICATION_TYPE": "U", "NORAD_CAT_ID": 66852, "ELEMENT_SET_NO": 999, "REV_AT_EPOCH": 318, "BSTAR": -0.027153634, "MEAN_MOTION_DOT": -0.01985372, "MEAN_MOTION_DDOT": 0}, "tle": {"line1": "1 66852U 25281E   25357.91668981 -.01985372  00000+0 -27154-1 0  9991", "line2": "2 66852  43.0005  54.3678 0001441 271.8780  62.6692 15.60043175  3182"}}, "geometry": {"type": "Point", "coordinates": [152.50548441624863, 42.49346123614688]}}, {"type": "Feature", "properties": {"norad_id": 66853, "name": "STARLINK-35986", "group": "last-30-days", "lat": 42.22530086702119, "lon": 155.07129763787262, "alt_km": 387.1172076499188, "timestamp": "2025-12-24T07:45:04.933164+00:00", "meta": {"OBJECT_NAME": "STARLINK-35986", "OBJECT_ID": "2025-281F", "EPOCH": "2025-12-23T22:00:01.999584", "MEAN_MOTION": 15.60046025, "ECCENTRICITY": 0.00015466, "INCLINATION": 43.0005, "RA_OF_ASC_NODE": 54.3628, "ARG_OF_PERICENTER": 269.1808, "MEAN_ANOMALY": 67.2804, "EPHEMERIS_TYPE": 0, "CLASSIFICATION_TYPE": "U", "NORAD_CAT_ID": 66853, "ELEMENT_SET_NO": 999, "REV_AT_EPOCH": 318, "BSTAR": -0.027159394, "MEAN_MOTION_DOT": -0.01986011, "MEAN_MOTION_DDOT": 0}, "tle": {"line1": "1 66853U 25281F   25357.91668981 -.01986011  00000+0 -27159-1 0  9998", "line2": "2 66853  43.0005  54.3628 0001546 269.1808  67.2804 15.60046025  3188"}}, "geometry": {"type": "Point", "coordinates": [155.07129763787262, 42.22530086702119]}}, {"type": "Feature", "properties": {"norad_id": 66854, "name": "STARLINK-36087", "group": "last-30-days", "lat": 41.90038834096401, "lon": 157.61347243476436, "alt_km": 387.143089593128, "timestamp": "2025-12-24T07:45:04.933174+00:00", "meta": {"OBJECT_NAME": "STARLINK-36087", "OBJECT_ID": "2025-281G", "EPOCH": "2025-12-23T22:00:01.999584", "MEAN_MOTION": 15.60045914, "ECCENTRICITY": 0.0001522, "INCLINATION": 43.0007, "RA_OF_ASC_NODE": 54.3577, "ARG_OF_PERICENTER": 268.9128, "MEAN_ANOMALY": 69.4654, "EPHEMERIS_TYPE": 0, "CLASSIFICATION_TYPE": "U", "NORAD_CAT_ID": 66854, "ELEMENT_SET_NO": 999, "REV_AT_EPOCH": 318, "BSTAR": -0.027156623, "MEAN_MOTION_DOT": -0.01985807, "MEAN_MOTION_DDOT": 0}, "tle": {"line1": "1 66854U 25281G   25357.91668981 -.01985807  00000+0 -27157-1 0  9999", "line2": "2 66854  43.0007  54.3577 0001522 268.9128  69.4654 15.60045914  3183"}}, "geometry": {"type": "Point", "coordinates": [157.61347243476436, 41.90038834096401]}}, {"type": "Feature", "properties": {"norad_id": 66855, "name": "STARLINK-36090", "group": "last-30-days", "lat": 41.51945748361243, "lon": 160.1277118561576, "alt_km": 387.18005076397367, "timestamp": "2025-12-24T07:45:04.933183+00:00", "meta": {"OBJECT_NAME": "STARLINK-36090", "OBJECT_ID": "2025-281H", "EPOCH": "2025-12-23T22:00:01.999584", "MEAN_MOTION": 15.60046263, "ECCENTRICITY": 0.00015062, "INCLINATION": 43.0005, "RA_OF_ASC_NODE": 54.3531, "ARG_OF_PERICENTER": 268.2055, "MEAN_ANOMALY": 72.0895, "EPHEMERIS_TYPE": 0, "CLASSIFICATION_TYPE": "U", "NORAD_CAT_ID": 66855, "ELEMENT_SET_NO": 999, "REV_AT_EPOCH": 306, "BSTAR": -0.027166691, "MEAN_MOTION_DOT": -0.01986465, "MEAN_MOTION_DDOT": 0}, "tle": {"line1": "1 66855U 25281H   25357.91668981 -.01986465  00000+0 -27167-1 0  9992", "line2": "2 66855  43.0005  54.3531 0001506 268.2055  72.0895 15.60046263  3068"}}, "geometry": {"type": "Point", "coordinates": [160.1277118561576, 41.51945748361243]}}, {"type": "Feature", "properties": {"norad_id": 66856, "name": "STARLINK-36072", "group": "last-30-days", "lat": 41.08393934807154, "lon": 162.61113183128165, "alt_km": 387.13477605353364, "timestamp": "2025-12-24T07:45:04.933193+00:00", "meta": {"OBJECT_NAME": "STARLINK-36072", "OBJECT_ID": "2025-281J", "EPOCH": "2025-12-23T22:00:01.999584", "MEAN_MOTION": 15.60047859, "ECCENTRICITY": 0.00013266, "INCLINATION": 43.0003, "RA_OF_ASC_NODE": 54.3476, "ARG_OF_PERICENTER": 271.1487, "MEAN_ANOMALY": 71.0622, "EPHEMERIS_TYPE": 0, "CLASSIFICATION_TYPE": "U", "NORAD_CAT_ID": 66856, "ELEMENT_SET_NO": 999, "REV_AT_EPOCH": 318, "BSTAR": -0.027210212, "MEAN_MOTION_DOT": -0.01989231, "MEAN_MOTION_DDOT": 0}, "tle": {"line1": "1 66856U 25281J   25357.91668981 -.01989231  00000+0 -27210-1 0  9996", "line2": "2 66856  43.0003  54.3476 0001326 271.1487  71.0622 15.60047859  3189"}}, "geometry": {"type": "Point", "coordinates": [162.61113183128165, 41.08393934807154]}}, {"type": "Feature", "properties": {"norad_id": 66857, "name": "STARLINK-36083", "group": "last-30-days", "lat": 40.59573370639959, "lon": 165.06122332652674, "alt_km": 387.2966759683741, "timestamp": "2025-12-24T07:45:04.933217+00:00", "meta": {"OBJECT_NAME": "STARLINK-36083", "OBJECT_ID": "2025-281K", "EPOCH": "2025-12-23T22:00:01.999584", "MEAN_MOTION": 15.60047371, "ECCENTRICITY": 0.00014397, "INCLINATION": 43.0004, "RA_OF_ASC_NODE": 54.3427, "ARG_OF_PERICENTER": 275.1975, "MEAN_ANOMALY": 68.9309, "EPHEMERIS_TYPE": 0, "CLASSIFICATION_TYPE": "U", "NORAD_CAT_ID": 66857, "ELEMENT_SET_NO": 999, "REV_AT_EPOCH": 318, "BSTAR": -0.027204988, "MEAN_MOTION_DOT": -0.01988946, "MEAN_MOTION_DDOT": 0}, "tle": {"line1": "1 66857U 25281K   25357.91668981 -.01988946  00000+0 -27205-1 0  9993", "line2": "2 66857  43.0004  54.3427 0001439 275.1975  68.9309 15.60047371  3184"}}, "geometry": {"type": "Point", "coordinates": [165.06122332652674, 40.59573370639959]}}, {"type": "Feature", "properties": {"norad_id": 66858, "name": "STARLINK-35118", "group": "last-30-days", "lat": 40.05709625268903, "lon": 167.47020159959465, "alt_km": 387.42047303251, "timestamp": "2025-12-24T07:45:04.933230+00:00", "meta": {"OBJECT_NAME": "STARLINK-35118", "OBJECT_ID": "2025-281L", "EPOCH": "2025-12-23T22:00:01.999584", "MEAN_MOTION": 15.60048026, "ECCENTRICITY": 0.00015536, "INCLINATION": 43.0004, "RA_OF_ASC_NODE": 54.3378, "ARG_OF_PERICENTER": 270.961, "MEAN_ANOMALY": 75.0827, "EPHEMERIS_TYPE": 0, "CLASSIFICATION_TYPE": "U", "NORAD_CAT_ID": 66858, "ELEMENT_SET_NO": 999, "REV_AT_EPOCH": 297, "BSTAR": -0.027175325, "MEAN_MOTION_DOT": -0.01987172, "MEAN_MOTION_DDOT": 0}, "tle": {"line1": "1 66858U 25281L   25357.91668981 -.01987172  00000+0 -27175-1 0  9990", "line2": "2 66858  43.0004  54.3378 0001553 270.9610  75.0827 15.60048026  2974"}}, "geometry": {"type": "Point", "coordinates": [167.47020159959465, 40.05709625268903]}}]}